OBJECT_NAME,OBJECT_ID,EPOCH,MEAN_MOTION,ECCENTRICITY,INCLINATION,RA_OF_ASC_NODE,ARG_OF_PERICENTER,MEAN_ANOMALY,EPHEMERIS_TYPE,CLASSIFICATION_TYPE,NORAD_CAT_ID,ELEMENT_SET_NO,REV_AT_EPOCH,BSTAR,MEAN_MOTION_DOT,MEAN_MOTION_DDOT
ONEWEB-0130,2020-100U,2026-06-18T18:58:49.776960,13.12444158,.00017612,87.8947,350.3331,94.2820,265.8510,0,U,47276,999,26485,.75082254E-3,.283E-5,0
ONEWEB-0131,2020-100V,2026-06-18T22:33:31.736160,13.12444593,.00016164,87.8936,350.3214,90.6941,269.4373,0,U,47277,999,26491,.56752828E-3,.217E-5,0
ONEWEB-0132,2020-100W,2026-06-18T21:25:11.847072,13.12442607,.00017353,87.8940,350.3328,91.3413,268.7914,0,U,47278,999,26480,.84974938E-4,.43E-6,0
ONEWEB-0133,2020-100X,2026-06-18T21:49:22.808928,13.12441250,.00016555,87.8952,350.3057,90.3764,269.7554,0,U,47279,999,26496,-.11324149E-2,-.395E-5,0
ONEWEB-0134,2020-100Y,2026-06-18T22:55:27.005952,13.12448841,.00017983,87.8954,350.2938,99.5357,260.5974,0,U,47280,999,26494,.33700721E-2,.1225E-4,0
ONEWEB-0135,2020-100Z,2026-06-18T22:13:58.435392,13.12443556,.00015711,87.8939,350.3220,97.3993,262.7314,0,U,47281,999,26496,-.101028E-2,-.351E-5,0
ONEWEB-0136,2020-100AA,2026-06-18T19:01:15.370464,13.12445100,.00016496,87.8947,350.3301,100.8545,259.2769,0,U,47282,999,26487,.10344332E-2,.385E-5,0
ONEWEB-0137,2020-100AB,2026-06-18T21:39:49.576032,13.12440578,.0001958,87.8952,350.3182,89.3254,270.8099,0,U,47283,999,26479,-.73685312E-3,-.252E-5,0
ONEWEB-0138,2020-100AC,2026-06-18T21:08:07.622592,13.12442758,.00017622,87.8949,350.3282,98.6108,261.5220,0,U,47284,999,26487,.84139835E-3,.315E-5,0
ONEWEB-0139,2020-100AD,2026-06-18T22:06:51.263424,13.12443104,.00018181,87.8946,350.3066,92.9842,267.1495,0,U,47285,999,26495,-.14383593E-2,-.505E-5,0
ONEWEB-0140,2020-100AE,2026-06-18T22:50:35.051712,13.12443928,.00016575,87.8950,350.2912,88.6403,271.4915,0,U,47286,999,26492,.12453719E-2,.461E-5,0
ONEWEB-0141,2020-100AF,2026-06-18T22:06:27.366912,13.12443079,.00021248,87.8947,350.3021,88.9568,271.1804,0,U,47287,999,26490,-.15169589E-2,-.533E-5,0
ONEWEB-0142,2020-100AG,2026-06-18T21:49:48.614880,13.12442662,.00021791,87.8942,350.3260,97.5637,262.5739,0,U,47288,999,26489,-.10289114E-2,-.357E-5,0
ONEWEB-0143,2020-100AH,2026-06-18T22:04:13.015776,13.12443303,.00018156,87.8948,350.3227,90.3251,269.8085,0,U,47289,999,26487,-.15333729E-2,-.539E-5,0
ONEWEB-0144,2020-100AJ,2026-06-18T17:43:12.334944,13.12443920,.00019018,87.8952,350.3330,102.8785,257.2556,0,U,47290,999,26477,.44760847E-3,.174E-5,0
ONEWEB-0145,2020-100AK,2026-06-18T22:31:03.673344,13.12445267,.00018695,87.8940,350.3208,93.5961,266.5381,0,U,47291,999,26499,.71915828E-3,.271E-5,0
ONEWEB-0146,2020-100AL,2026-06-18T22:26:11.143680,13.12445081,.00016507,87.8949,350.3134,80.8579,279.2737,0,U,47292,999,26490,.32065267E-3,.128E-5,0
ONEWEB-0147,2020-100AM,2026-06-18T21:37:23.263680,13.12440689,.00016609,87.8951,350.3017,93.8632,266.2687,0,U,47293,999,26479,-.77766014E-3,-.267E-5,0
ONEWEB-0115,2021-025A,2026-06-18T22:16:02.435808,13.13470598,.00017953,87.8959,319.8766,95.6169,264.5164,0,U,48042,999,25382,.14401097E-3,.65E-6,0
ONEWEB-0152,2021-025B,2026-06-18T18:56:08.835360,13.13470285,.00017162,87.8964,319.9009,94.3094,265.8231,0,U,48043,999,25376,.73639609E-3,.282E-5,0
ONEWEB-0153,2021-025C,2026-06-18T22:03:50.226048,13.13471475,.00018938,87.8955,319.8780,99.0107,261.1237,0,U,48044,999,25377,-.5904724E-3,-.203E-5,0
ONEWEB-0154,2021-025D,2026-06-18T21:58:57.474336,13.13465649,.00018225,87.8951,319.8764,101.1933,258.9402,0,U,48045,999,25373,-.37349736E-2,-.1351E-4,0
ONEWEB-0116,2021-025E,2026-06-18T21:05:20.167296,13.13467862,.00017316,87.8964,319.8804,94.8734,265.2592,0,U,48046,999,25387,.44528594E-3,.175E-5,0
ONEWEB-0150,2021-025F,2026-06-18T22:20:54.720960,13.13470699,.00020183,87.8962,319.8673,93.8386,266.2974,0,U,48047,999,25377,.43283741E-3,.171E-5,0
ONEWEB-0107,2021-025G,2026-06-18T22:23:21.038496,13.13470375,.00020295,87.8963,319.8629,102.1076,258.0281,0,U,48048,999,25375,.5755597E-3,.223E-5,0
ONEWEB-0101,2021-025H,2026-06-18T21:29:42.373248,13.13470545,.00018146,87.8954,319.8856,102.1349,257.9984,0,U,48049,999,25372,-.55650694E-3,-.19E-5,0
ONEWEB-0113,2021-025J,2026-06-18T22:03:59.259168,13.13893850,.0001849,87.8959,319.7912,93.6344,266.4997,0,U,48050,999,25383,-.4215951E-3,-.142E-5,0
ONEWEB-0112,2021-025K,2026-06-18T22:30:39.730176,13.13470796,.00017993,87.8963,319.8599,104.7349,255.3980,0,U,48051,999,25382,.69875595E-3,.268E-5,0
ONEWEB-0156,2021-025L,2026-06-18T17:13:45.559488,13.13470335,.00019644,87.8962,319.9137,97.9138,262.2214,0,U,48052,999,25377,.83225519E-3,.317E-5,0
ONEWEB-0161,2021-025M,2026-06-18T22:06:16.442496,13.13471040,.00020181,87.8962,319.8746,99.7619,260.3738,0,U,48053,999,25373,-.33596825E-3,-.11E-5,0
