ONEWEB-0130             
1 47276U 20100U   26169.79085390  .00000283  00000+0  75082-3 0  9991
2 47276  87.8947 350.3331 0001761  94.2820 265.8510 13.12444158264854
ONEWEB-0131             
1 47277U 20100V   26169.93995065  .00000217  00000+0  56753-3 0  9998
2 47277  87.8936 350.3214 0001616  90.6941 269.4373 13.12444593264913
ONEWEB-0132             
1 47278U 20100W   26169.89249823  .00000043  00000+0  84975-4 0  9993
2 47278  87.8940 350.3328 0001735  91.3413 268.7914 13.12442607264804
ONEWEB-0133             
1 47279U 20100X   26169.90929177 -.00000395  00000+0 -11324-2 0  9991
2 47279  87.8952 350.3057 0001655  90.3764 269.7554 13.12441250264967
ONEWEB-0134             
1 47280U 20100Y   26169.95517368  .00001225  00000+0  33701-2 0  9997
2 47280  87.8954 350.2938 0001798  99.5357 260.5974 13.12448841264941
ONEWEB-0135             
1 47281U 20100Z   26169.92637078 -.00000351  00000+0 -10103-2 0  9998
2 47281  87.8939 350.3220 0001571  97.3993 262.7314 13.12443556264963
ONEWEB-0136             
1 47282U 20100AA  26169.79253901  .00000385  00000+0  10344-2 0  9995
2 47282  87.8947 350.3301 0001649 100.8545 259.2769 13.12445100264874
ONEWEB-0137             
1 47283U 20100AB  26169.90265713 -.00000252  00000+0 -73685-3 0  9996
2 47283  87.8952 350.3182 0001958  89.3254 270.8099 13.12440578264799
ONEWEB-0138             
1 47284U 20100AC  26169.88064378  .00000315  00000+0  84140-3 0  9994
2 47284  87.8949 350.3282 0001762  98.6108 261.5220 13.12442758264875
ONEWEB-0139             
1 47285U 20100AD  26169.92142666 -.00000505  00000+0 -14384-2 0  9992
2 47285  87.8946 350.3066 0001818  92.9842 267.1495 13.12443104264958
ONEWEB-0140             
1 47286U 20100AE  26169.95179458  .00000461  00000+0  12454-2 0  9990
2 47286  87.8950 350.2912 0001657  88.6403 271.4915 13.12443928264925
ONEWEB-0141             
1 47287U 20100AF  26169.92115008 -.00000533  00000+0 -15170-2 0  9999
2 47287  87.8947 350.3021 0002124  88.9568 271.1804 13.12443079264908
ONEWEB-0142             
1 47288U 20100AG  26169.90959045 -.00000357  00000+0 -10289-2 0  9995
2 47288  87.8942 350.3260 0002179  97.5637 262.5739 13.12442662264898
ONEWEB-0143             
1 47289U 20100AH  26169.91959509 -.00000539  00000+0 -15334-2 0  9990
2 47289  87.8948 350.3227 0001815  90.3251 269.8085 13.12443303264872
ONEWEB-0144             
1 47290U 20100AJ  26169.73833721  .00000174  00000+0  44761-3 0  9999
2 47290  87.8952 350.3330 0001901 102.8785 257.2556 13.12443920264779
ONEWEB-0145             
1 47291U 20100AK  26169.93823696  .00000271  00000+0  71916-3 0  9992
2 47291  87.8940 350.3208 0001869  93.5961 266.5381 13.12445267264995
ONEWEB-0146             
1 47292U 20100AL  26169.93485120  .00000128  00000+0  32065-3 0  9992
2 47292  87.8949 350.3134 0001650  80.8579 279.2737 13.12445081264906
ONEWEB-0147             
1 47293U 20100AM  26169.90096370 -.00000267  00000+0 -77766-3 0  9998
2 47293  87.8951 350.3017 0001660  93.8632 266.2687 13.12440689264791
ONEWEB-0115             
1 48042U 21025A   26169.92780597  .00000065  00000+0  14401-3 0  9992
2 48042  87.8959 319.8766 0001795  95.6169 264.5164 13.13470598253823
ONEWEB-0152             
1 48043U 21025B   26169.78899115  .00000282  00000+0  73640-3 0  9995
2 48043  87.8964 319.9009 0001716  94.3094 265.8231 13.13470285253762
ONEWEB-0153             
1 48044U 21025C   26169.91933132 -.00000203  00000+0 -59047-3 0  9999
2 48044  87.8955 319.8780 0001893  99.0107 261.1237 13.13471475253779
ONEWEB-0154             
1 48045U 21025D   26169.91594299 -.00001351  00000+0 -37350-2 0  9994
2 48045  87.8951 319.8764 0001822 101.1933 258.9402 13.13465649253732
ONEWEB-0116             
1 48046U 21025E   26169.87870564  .00000175  00000+0  44529-3 0  9990
2 48046  87.8964 319.8804 0001731  94.8734 265.2592 13.13467862253873
ONEWEB-0150             
1 48047U 21025F   26169.93118890  .00000171  00000+0  43284-3 0  9998
2 48047  87.8962 319.8673 0002018  93.8386 266.2974 13.13470699253773
ONEWEB-0107             
1 48048U 21025G   26169.93288239  .00000223  00000+0  57556-3 0  9999
2 48048  87.8963 319.8629 0002029 102.1076 258.0281 13.13470375253757
ONEWEB-0101             
1 48049U 21025H   26169.89562932 -.00000190  00000+0 -55651-3 0  9999
2 48049  87.8954 319.8856 0001814 102.1349 257.9984 13.13470545253728
ONEWEB-0113             
1 48050U 21025J   26169.91943587 -.00000142  00000+0 -42160-3 0  9991
2 48050  87.8959 319.7912 0001849  93.6344 266.4997 13.13893850253833
ONEWEB-0112             
1 48051U 21025K   26169.93795984  .00000268  00000+0  69876-3 0  9990
2 48051  87.8963 319.8599 0001799 104.7349 255.3980 13.13470796253822
ONEWEB-0156             
1 48052U 21025L   26169.71788842  .00000317  00000+0  83226-3 0  9992
2 48052  87.8962 319.9137 0001964  97.9138 262.2214 13.13470335253774
ONEWEB-0161             
1 48053U 21025M   26169.92102364 -.00000110  00000+0 -33597-3 0  9994
2 48053  87.8962 319.8746 0002018  99.7619 260.3738 13.13471040253735
